[
  {
    "COMMENT": "GENERATED VIA SPACETRACK.ORG API",
    "ORIGINATOR": "18 SPCS",
    "NORAD_CAT_ID": "46984",
    "OBJECT_NAME": "S6 MICHAEL FREILICH",
    "OBJECT_TYPE": "PAYLOAD",
    "CLASSIFICATION_TYPE": "U",
    "INTLDES": "20086A",
    "EPOCH": "2022-11-14 10:11:41",
    "EPOCH_MICROSECONDS": "366976",
    "MEAN_MOTION": "12.80929303",
    "ECCENTRICITY": "0.0007928",
    "INCLINATION": "66.0451",
    "RA_OF_ASC_NODE": "337.5296",
    "ARG_OF_PERICENTER": "265.3224",
    "MEAN_ANOMALY": "94.6884",
    "EPHEMERIS_TYPE": "0",
    "ELEMENT_SET_NO": "999",
    "REV_AT_EPOCH": "9257",
    "BSTAR": "0",
    "MEAN_MOTION_DOT": "-0.00000061",
    "MEAN_MOTION_DDOT": "0",
    "FILE": "3654975",
    "TLE_LINE0": "0 S6 MICHAEL FREILICH",
    "TLE_LINE1": "1 46984U 20086A   22318.42478434 -.00000061  00000-0  00000-0 0  9997",
    "TLE_LINE2": "2 46984  66.0451 337.5296 0007928 265.3224  94.6884 12.80929303 92579",
    "OBJECT_ID": "2020-086A",
    "OBJECT_NUMBER": "46984",
    "SEMIMAJOR_AXIS": "7715.873",
    "PERIOD": "112.418",
    "APOGEE": "1343.855",
    "PERIGEE": "1331.621",
    "DECAYED": "0"
  },
  {
    "COMMENT": "GENERATED VIA SPACETRACK.ORG API",
    "ORIGINATOR": "18 SPCS",
    "NORAD_CAT_ID": "46984",
    "OBJECT_NAME": "S6 MICHAEL FREILICH",
    "OBJECT_TYPE": "PAYLOAD",
    "CLASSIFICATION_TYPE": "U",
    "INTLDES": "20086A",
    "EPOCH": "2022-11-14 17:41:24",
    "EPOCH_MICROSECONDS": "434304",
    "MEAN_MOTION": "12.809293",
    "ECCENTRICITY": "0.0007929",
    "INCLINATION": "66.0451",
    "RA_OF_ASC_NODE": "336.8811",
    "ARG_OF_PERICENTER": "265.2381",
    "MEAN_ANOMALY": "94.7729",
    "EPHEMERIS_TYPE": "0",
    "ELEMENT_SET_NO": "999",
    "REV_AT_EPOCH": "9261",
    "BSTAR": "0",
    "MEAN_MOTION_DOT": "-0.00000061",
    "MEAN_MOTION_DDOT": "0",
    "FILE": "3656014",
    "TLE_LINE0": "0 S6 MICHAEL FREILICH",
    "TLE_LINE1": "1 46984U 20086A   22318.73708836 -.00000061  00000-0  00000-0 0  9993",
    "TLE_LINE2": "2 46984  66.0451 336.8811 0007929 265.2381  94.7729 12.80929300 92619",
    "OBJECT_ID": "2020-086A",
    "OBJECT_NUMBER": "46984",
    "SEMIMAJOR_AXIS": "7715.873",
    "PERIOD": "112.418",
    "APOGEE": "1343.856",
    "PERIGEE": "1331.620",
    "DECAYED": "0"
  },
  {
    "COMMENT": "GENERATED VIA SPACETRACK.ORG API",
    "ORIGINATOR": "18 SPCS",
    "NORAD_CAT_ID": "46984",
    "OBJECT_NAME": "S6 MICHAEL FREILICH",
    "OBJECT_TYPE": "PAYLOAD",
    "CLASSIFICATION_TYPE": "U",
    "INTLDES": "20086A",
    "EPOCH": "2022-11-15 10:33:16",
    "EPOCH_MICROSECONDS": "314624",
    "MEAN_MOTION": "12.80929346",
    "ECCENTRICITY": "0.0007935",
    "INCLINATION": "66.0451",
    "RA_OF_ASC_NODE": "335.4218",
    "ARG_OF_PERICENTER": "265.2328",
    "MEAN_ANOMALY": "94.7782",
    "EPHEMERIS_TYPE": "0",
    "ELEMENT_SET_NO": "999",
    "REV_AT_EPOCH": "9270",
    "BSTAR": "0",
    "MEAN_MOTION_DOT": "-0.00000061",
    "MEAN_MOTION_DDOT": "0",
    "FILE": "3657603",
    "TLE_LINE0": "0 S6 MICHAEL FREILICH",
    "TLE_LINE1": "1 46984U 20086A   22319.43977216 -.00000061  00000-0  00000-0 0  9991",
    "TLE_LINE2": "2 46984  66.0451 335.4218 0007935 265.2328  94.7782 12.80929346 92702",
    "OBJECT_ID": "2020-086A",
    "OBJECT_NUMBER": "46984",
    "SEMIMAJOR_AXIS": "7715.873",
    "PERIOD": "112.418",
    "APOGEE": "1343.860",
    "PERIGEE": "1331.615",
    "DECAYED": "0"
  },
  {
    "COMMENT": "GENERATED VIA SPACETRACK.ORG API",
    "ORIGINATOR": "18 SPCS",
    "NORAD_CAT_ID": "46984",
    "OBJECT_NAME": "S6 MICHAEL FREILICH",
    "OBJECT_TYPE": "PAYLOAD",
    "CLASSIFICATION_TYPE": "U",
    "INTLDES": "20086A",
    "EPOCH": "2022-11-15 18:02:59",
    "EPOCH_MICROSECONDS": "375040",
    "MEAN_MOTION": "12.80929332",
    "ECCENTRICITY": "0.0007947",
    "INCLINATION": "66.0448",
    "RA_OF_ASC_NODE": "334.773",
    "ARG_OF_PERICENTER": "265.2346",
    "MEAN_ANOMALY": "94.7761",
    "EPHEMERIS_TYPE": "0",
    "ELEMENT_SET_NO": "999",
    "REV_AT_EPOCH": "9274",
    "BSTAR": "0",
    "MEAN_MOTION_DOT": "-0.00000061",
    "MEAN_MOTION_DDOT": "0",
    "FILE": "3657961",
    "TLE_LINE0": "0 S6 MICHAEL FREILICH",
    "TLE_LINE1": "1 46984U 20086A   22319.75207610 -.00000061  00000-0  00000-0 0  9990",
    "TLE_LINE2": "2 46984  66.0448 334.7730 0007947 265.2346  94.7761 12.80929332 92748",
    "OBJECT_ID": "2020-086A",
    "OBJECT_NUMBER": "46984",
    "SEMIMAJOR_AXIS": "7715.873",
    "PERIOD": "112.418",
    "APOGEE": "1343.870",
    "PERIGEE": "1331.606",
    "DECAYED": "0"
  },
  {
    "COMMENT": "GENERATED VIA SPACETRACK.ORG API",
    "ORIGINATOR": "18 SPCS",
    "NORAD_CAT_ID": "46984",
    "OBJECT_NAME": "S6 MICHAEL FREILICH",
    "OBJECT_TYPE": "PAYLOAD",
    "CLASSIFICATION_TYPE": "U",
    "INTLDES": "20086A",
    "EPOCH": "2022-11-16 07:09:59",
    "EPOCH_MICROSECONDS": "732064",
    "MEAN_MOTION": "12.80929331",
    "ECCENTRICITY": "0.0007932",
    "INCLINATION": "66.045",
    "RA_OF_ASC_NODE": "333.6381",
    "ARG_OF_PERICENTER": "265.301",
    "MEAN_ANOMALY": "94.7097",
    "EPHEMERIS_TYPE": "0",
    "ELEMENT_SET_NO": "999",
    "REV_AT_EPOCH": "9281",
    "BSTAR": "0",
    "MEAN_MOTION_DOT": "-0.00000061",
    "MEAN_MOTION_DDOT": "0",
    "FILE": "3659019",
    "TLE_LINE0": "0 S6 MICHAEL FREILICH",
    "TLE_LINE1": "1 46984U 20086A   22320.29860801 -.00000061  00000-0  00000+0 0  9997",
    "TLE_LINE2": "2 46984  66.0450 333.6381 0007932 265.3010  94.7097 12.80929331 92813",
    "OBJECT_ID": "2020-086A",
    "OBJECT_NUMBER": "46984",
    "SEMIMAJOR_AXIS": "7715.873",
    "PERIOD": "112.418",
    "APOGEE": "1343.858",
    "PERIGEE": "1331.618",
    "DECAYED": "0"
  },
  {
    "COMMENT": "GENERATED VIA SPACETRACK.ORG API",
    "ORIGINATOR": "18 SPCS",
    "NORAD_CAT_ID": "46984",
    "OBJECT_NAME": "S6 MICHAEL FREILICH",
    "OBJECT_TYPE": "PAYLOAD",
    "CLASSIFICATION_TYPE": "U",
    "INTLDES": "20086A",
    "EPOCH": "2022-11-16 07:09:59",
    "EPOCH_MICROSECONDS": "732064",
    "MEAN_MOTION": "12.80929331",
    "ECCENTRICITY": "0.0007932",
    "INCLINATION": "66.045",
    "RA_OF_ASC_NODE": "333.6381",
    "ARG_OF_PERICENTER": "265.301",
    "MEAN_ANOMALY": "94.7097",
    "EPHEMERIS_TYPE": "0",
    "ELEMENT_SET_NO": "999",
    "REV_AT_EPOCH": "9281",
    "BSTAR": "0",
    "MEAN_MOTION_DOT": "-0.00000061",
    "MEAN_MOTION_DDOT": "0",
    "FILE": "3659022",
    "TLE_LINE0": "0 S6 MICHAEL FREILICH",
    "TLE_LINE1": "1 46984U 20086A   22320.29860801 -.00000061  00000-0  00000+0 0  9997",
    "TLE_LINE2": "2 46984  66.0450 333.6381 0007932 265.3010  94.7097 12.80929331 92813",
    "OBJECT_ID": "2020-086A",
    "OBJECT_NUMBER": "46984",
    "SEMIMAJOR_AXIS": "7715.873",
    "PERIOD": "112.418",
    "APOGEE": "1343.858",
    "PERIGEE": "1331.618",
    "DECAYED": "0"
  },
  {
    "COMMENT": "GENERATED VIA SPACETRACK.ORG API",
    "ORIGINATOR": "18 SPCS",
    "NORAD_CAT_ID": "46984",
    "OBJECT_NAME": "S6 MICHAEL FREILICH",
    "OBJECT_TYPE": "PAYLOAD",
    "CLASSIFICATION_TYPE": "U",
    "INTLDES": "20086A",
    "EPOCH": "2022-11-16 07:09:59",
    "EPOCH_MICROSECONDS": "732064",
    "MEAN_MOTION": "12.80929331",
    "ECCENTRICITY": "0.0007932",
    "INCLINATION": "66.045",
    "RA_OF_ASC_NODE": "333.6381",
    "ARG_OF_PERICENTER": "265.301",
    "MEAN_ANOMALY": "94.7097",
    "EPHEMERIS_TYPE": "0",
    "ELEMENT_SET_NO": "999",
    "REV_AT_EPOCH": "9281",
    "BSTAR": "0",
    "MEAN_MOTION_DOT": "-0.00000061",
    "MEAN_MOTION_DDOT": "0",
    "FILE": "3659788",
    "TLE_LINE0": "0 S6 MICHAEL FREILICH",
    "TLE_LINE1": "1 46984U 20086A   22320.29860801 -.00000061  00000-0  00000-0 0  9998",
    "TLE_LINE2": "2 46984  66.0450 333.6381 0007932 265.3010  94.7097 12.80929331 92813",
    "OBJECT_ID": "2020-086A",
    "OBJECT_NUMBER": "46984",
    "SEMIMAJOR_AXIS": "7715.873",
    "PERIOD": "112.418",
    "APOGEE": "1343.858",
    "PERIGEE": "1331.618",
    "DECAYED": "0"
  },
  {
    "COMMENT": "GENERATED VIA SPACETRACK.ORG API",
    "ORIGINATOR": "18 SPCS",
    "NORAD_CAT_ID": "46984",
    "OBJECT_NAME": "S6 MICHAEL FREILICH",
    "OBJECT_TYPE": "PAYLOAD",
    "CLASSIFICATION_TYPE": "U",
    "INTLDES": "20086A",
    "EPOCH": "2022-11-16 18:24:34",
    "EPOCH_MICROSECONDS": "329600",
    "MEAN_MOTION": "12.80929334",
    "ECCENTRICITY": "0.0007927",
    "INCLINATION": "66.0448",
    "RA_OF_ASC_NODE": "332.6651",
    "ARG_OF_PERICENTER": "265.3073",
    "MEAN_ANOMALY": "94.7038",
    "EPHEMERIS_TYPE": "0",
    "ELEMENT_SET_NO": "999",
    "REV_AT_EPOCH": "9287",
    "BSTAR": "0",
    "MEAN_MOTION_DOT": "-0.00000061",
    "MEAN_MOTION_DDOT": "0",
    "FILE": "3660705",
    "TLE_LINE0": "0 S6 MICHAEL FREILICH",
    "TLE_LINE1": "1 46984U 20086A   22320.76706400 -.00000061  00000-0  00000-0 0  9994",
    "TLE_LINE2": "2 46984  66.0448 332.6651 0007927 265.3073  94.7038 12.80929334 92876",
    "OBJECT_ID": "2020-086A",
    "OBJECT_NUMBER": "46984",
    "SEMIMAJOR_AXIS": "7715.873",
    "PERIOD": "112.418",
    "APOGEE": "1343.854",
    "PERIGEE": "1331.621",
    "DECAYED": "0"
  }
]